NORAD_CAT_ID,OBJECT_NAME,OBJECT_TYPE,EPOCH,MEAN_MOTION,ECCENTRICITY,INCLINATION,RA_OF_ASC_NODE,ARG_OF_PERICENTER,MEAN_ANOMALY,BSTAR,MEAN_MOTION_DOT,MEAN_MOTION_DDOT,TLE_LINE0,TLE_LINE1,TLE_LINE2,SEMIMAJOR_AXIS,PERIOD,APOGEE,PERIGEE,DECAYED
54186.0,STARLINK-5194,PAYLOAD,2023-12-31 08:40:13,15.08838716,0.0001449,53.2182,342.6425,102.3778,257.7376,7.85e-05,9.62e-06,0.0,0 STARLINK-5194,1 54186U 22141AF  23365.36126622  .00000962  00000-0  78500-4 0  9992,2 54186  53.2182 342.6425 0001449 102.3778 257.7376 15.08838716 65554,6917.884,95.438,540.752,538.747,0.0
54186.0,STARLINK-5194,PAYLOAD,2024-01-01 03:44:52,15.08828224,0.0001484,53.2182,339.0731,92.7612,267.355,-6.9095e-05,-1.387e-05,0.0,0 STARLINK-5194,1 54186U 22141AF  24001.15616098 -.00001387  00000-0 -69095-4 0  9991,2 54186  53.2182 339.0731 0001484  92.7612 267.3550 15.08828224 65679,6917.916,95.438,540.808,538.755,0.0
54186.0,STARLINK-5194,PAYLOAD,2024-01-01 05:20:15,15.08824544,0.0001451,53.2182,338.7762,93.7327,266.3831,-8.7294e-05,-1.676e-05,0.0,0 STARLINK-5194,1 54186U 22141AF  24001.22240452 -.00001676  00000-0 -87294-4 0  9998,2 54186  53.2182 338.7762 0001451  93.7327 266.3831 15.08824544 65455,6917.928,95.439,540.796,538.789,0.0
54186.0,STARLINK-5194,PAYLOAD,2024-01-01 22:49:29,15.08834182,0.0001275,53.2181,335.5086,103.0258,257.0876,9.0469e-06,-1.44e-06,0.0,0 STARLINK-5194,1 54186U 22141AF  24001.95103967 -.00000144  00000-0  90469-5 0  9994,2 54186  53.2181 335.5086 0001275 103.0258 257.0876 15.08834182 65567,6917.898,95.438,540.645,538.881,0.0
54186.0,STARLINK-5194,PAYLOAD,2024-01-02 03:35:38,15.08843905,0.000138,53.2179,334.6134,77.6389,282.4758,7.7542e-05,9.46e-06,0.0,0 STARLINK-5194,1 54186U 22141AF  24002.14975283  .00000946  00000-0  77542-4 0  9999,2 54186  53.2179 334.6134 0001380  77.6389 282.4758 15.08843905 65829,6917.868,95.437,540.688,538.779,0.0
54186.0,STARLINK-5194,PAYLOAD,2024-01-02 06:46:24,15.08842447,0.0001421,53.2179,334.018,82.0037,278.1116,0.00020763,3.018e-05,0.0,0 STARLINK-5194,1 54186U 22141AF  24002.28222976  .00003018  00000-0  20763-3 0  9993,2 54186  53.2179 334.0180 0001421  82.0037 278.1116 15.08842447 65617,6917.873,95.437,540.721,538.755,0.0
54186.0,STARLINK-5194,PAYLOAD,2024-01-03 06:37:11,15.08841198,0.0001598,53.2191,329.5618,76.1597,283.9573,0.00017046,2.426e-05,0.0,0 STARLINK-5194,1 54186U 22141AF  24003.27583240  .00002426  00000-0  17046-3 0  9999,2 54186  53.2191 329.5618 0001598  76.1597 283.9573 15.08841198 65990,6917.877,95.437,540.847,538.636,0.0
54186.0,STARLINK-5194,PAYLOAD,2024-01-04 03:17:13,15.08840764,0.0002004,53.2191,325.698,51.8309,308.2863,-2.5397e-06,-3.29e-06,0.0,0 STARLINK-5194,1 54186U 22141AF  24004.13696082 -.00000329  00000-0 -25397-5 0  9996,2 54186  53.2191 325.6980 0002004  51.8309 308.2863 15.08840764 66120,6917.878,95.438,541.129,538.357,0.0
54186.0,STARLINK-5194,PAYLOAD,2024-01-04 06:27:59,15.08845842,0.0001454,53.2185,325.0996,76.5101,283.6053,1.9186e-05,1.7e-07,0.0,0 STARLINK-5194,1 54186U 22141AF  24004.26943317  .00000017  00000-0  19186-4 0  9996,2 54186  53.2185 325.0996 0001454  76.5101 283.6053 15.08845842 66147,6917.863,95.437,540.733,538.722,0.0
54186.0,STARLINK-5194,PAYLOAD,2024-01-05 06:18:45,15.08847448,0.0001534,53.219,320.6378,88.4027,271.714,-1.8372e-05,-5.8e-06,0.0,0 STARLINK-5194,1 54186U 22141AF  24005.26303075 -.00000580  00000-0 -18372-4 0  9991,2 54186  53.2190 320.6378 0001534  88.4027 271.7140 15.08847448 66066,6917.858,95.437,540.784,538.661,0.0
54186.0,STARLINK-5194,PAYLOAD,2024-01-05 20:37:15,15.08832718,0.0001433,53.2185,317.9608,96.1676,263.9479,-5.5176e-05,-1.166e-05,0.0,0 STARLINK-5194,1 54186U 22141AF  24005.85920195 -.00001166  00000-0 -55176-4 0  9998,2 54186  53.2185 317.9608 0001433  96.1676 263.9479 15.08832718 66386,6917.903,95.438,540.759,538.776,0.0
54186.0,STARLINK-5194,PAYLOAD,2024-01-06 06:09:33,15.0884078,0.0001432,53.218,316.1781,98.4351,261.6803,1.098e-05,-1.13e-06,0.0,0 STARLINK-5194,1 54186U 22141AF  24006.25663486 -.00000113  00000-0  10980-4 0  9994,2 54186  53.2180 316.1781 0001432  98.4351 261.6803 15.08840780 66449,6917.878,95.438,540.734,538.752,0.0
54186.0,STARLINK-5194,PAYLOAD,2024-01-07 06:00:19,15.08849583,0.0001597,53.2174,311.7168,120.3687,239.7464,6.4384e-05,7.37e-06,0.0,0 STARLINK-5194,1 54186U 22141AF  24007.25022515  .00000737  00000-0  64384-4 0  9995,2 54186  53.2174 311.7168 0001597 120.3687 239.7464 15.08849583 66596,6917.851,95.437,540.821,538.611,0.0
54186.0,STARLINK-5194,PAYLOAD,2024-01-07 20:18:48,15.0884142,0.000169,53.2186,309.0364,115.1501,244.9666,-3.5147e-05,-8.47e-06,0.0,0 STARLINK-5194,1 54186U 22141AF  24007.84639599 -.00000847  00000-0 -35147-4 0  9995,2 54186  53.2186 309.0364 0001690 115.1501 244.9666 15.08841420 66682,6917.876,95.437,540.91,538.572,0.0
54186.0,STARLINK-5194,PAYLOAD,2024-01-08 05:51:07,15.08841672,0.0001433,53.2182,307.2572,91.2818,268.8339,2.9636e-05,1.84e-06,0.0,0 STARLINK-5194,1 54186U 22141AF  24008.24383393  .00000184  00000-0  29636-4 0  9996,2 54186  53.2182 307.2572 0001433  91.2818 268.8339 15.08841672 66512,6917.875,95.437,540.732,538.749,0.0
54186.0,STARLINK-5194,PAYLOAD,2024-01-08 16:58:49,15.0883685,0.0001486,53.2176,305.1741,106.6306,253.4849,-2.821e-05,-7.37e-06,0.0,0 STARLINK-5194,1 54186U 22141AF  24008.70751851 -.00000737  00000-0 -28210-4 0  9998,2 54186  53.2176 305.1741 0001486 106.6306 253.4849 15.08836850 66586,6917.89,95.438,540.783,538.727,0.0
54186.0,STARLINK-5194,PAYLOAD,2024-01-09 02:31:07,15.08845972,0.0001496,53.2176,303.3895,108.6001,251.5154,-9.2912e-06,-4.36e-06,0.0,0 STARLINK-5194,1 54186U 22141AF  24009.10495232 -.00000436  00000-0 -92912-5 0  9998,2 54186  53.2176 303.3895 0001496 108.6001 251.5154 15.08845972 66876,6917.862,95.437,540.762,538.692,0.0
54186.0,STARLINK-5194,PAYLOAD,2024-01-09 05:41:54,15.08846663,0.0001565,53.2175,302.7947,115.0995,245.016,-5.8404e-06,-3.81e-06,0.0,0 STARLINK-5194,1 54186U 22141AF  24009.23743116 -.00000381  00000-0 -58404-5 0  9996,2 54186  53.2175 302.7947 0001565 115.0995 245.0160 15.08846663 66667,6917.86,95.437,540.808,538.642,0.0
54186.0,STARLINK-5194,PAYLOAD,2024-01-10 00:46:32,15.08837465,0.0001349,53.2167,299.2254,95.2856,264.8291,7.6384e-06,-1.66e-06,0.0,0 STARLINK-5194,1 54186U 22141AF  24010.03231833 -.00000166  00000-0  76384-5 0  9991,2 54186  53.2167 299.2254 0001349  95.2856 264.8291 15.08837465 67018,6917.888,95.438,540.686,538.82,0.0
54186.0,STARLINK-5194,PAYLOAD,2024-01-11 03:48:05,15.08845612,0.0001397,53.2188,294.1702,98.8329,261.2821,0.0001351,1.863e-05,0.0,0 STARLINK-5194,1 54186U 22141AF  24011.15839178  .00001863  00000-0  13510-3 0  9995,2 54186  53.2188 294.1702 0001397  98.8329 261.2821 15.08845612 67181,6917.863,95.437,540.695,538.762,0.0
54186.0,STARLINK-5194,PAYLOAD,2024-01-12 02:03:29,15.0883617,0.0001522,53.2178,290.0156,84.8297,275.2869,5.2753e-05,5.52e-06,0.0,0 STARLINK-5194,1 54186U 22141AF  24012.08576385  .00000552  00000-0  52753-4 0  9993,2 54186  53.2178 290.0156 0001522  84.8297 275.2869 15.08836170 67329,6917.892,95.438,540.81,538.704,0.0
54186.0,STARLINK-5194,PAYLOAD,2024-01-12 22:43:31,15.0883799,0.0001639,53.2181,286.1489,77.7996,282.318,-4.0484e-05,-9.32e-06,0.0,0 STARLINK-5194,1 54186U 22141AF  24012.94688983 -.00000932  00000-0 -40484-4 0  9998,2 54186  53.2181 286.1489 0001639  77.7996 282.3180 15.08837990 67229,6917.887,95.438,540.885,538.618,0.0
54186.0,STARLINK-5194,PAYLOAD,2024-01-13 03:29:40,15.08842467,0.0002037,53.2194,285.2456,66.8552,293.2654,-6.4531e-06,-3.91e-06,0.0,0 STARLINK-5194,1 54186U 22141AF  24013.14560666 -.00000391  00000-0 -64531-5 0  9997,2 54186  53.2194 285.2456 0002037  66.8552 293.2654 15.08842467 67487,6917.873,95.437,541.147,538.329,0.0
54186.0,STARLINK-5194,PAYLOAD,2024-01-14 03:20:26,15.08851511,0.0001792,53.218,280.7917,107.708,252.4108,0.00013386,1.844e-05,0.0,0 STARLINK-5194,1 54186U 22141AF  24014.13919439  .00001844  00000-0  13386-3 0  9995,2 54186  53.2180 280.7917 0001792 107.7080 252.4108 15.08851511 67630,6917.845,95.437,540.95,538.471,0.0
54186.0,STARLINK-5194,PAYLOAD,2024-01-14 17:38:55,15.08841872,0.0001809,53.2165,278.1185,93.2527,266.8673,3.4314e-05,2.58e-06,0.0,0 STARLINK-5194,1 54186U 22141AF  24014.73536502  .00000258  00000-0  34314-4 0  9990,2 54186  53.2165 278.1185 0001809  93.2527 266.8673 15.08841872 67720,6917.875,95.437,540.991,538.488,0.0
54186.0,STARLINK-5194,PAYLOAD,2024-01-14 22:25:04,15.08844923,0.0001672,53.2167,277.2274,106.4593,253.6583,5.3965e-05,5.71e-06,0.0,0 STARLINK-5194,1 54186U 22141AF  24014.93408138  .00000571  00000-0  53965-4 0  9996,2 54186  53.2167 277.2274 0001672 106.4593 253.6583 15.08844923 67521,6917.865,95.437,540.887,538.574,0.0
54186.0,STARLINK-5194,PAYLOAD,2024-01-15 03:11:13,15.08852785,0.0001722,53.2162,276.329,115.0589,245.0582,9.6787e-05,1.253e-05,0.0,0 STARLINK-5194,1 54186U 22141AF  24015.13279311  .00001253  00000-0  96787-4 0  9995,2 54186  53.2162 276.3290 0001722 115.0589 245.0582 15.08852785 67788,6917.841,95.437,540.898,538.515,0.0
54186.0,STARLINK-5194,PAYLOAD,2024-01-15 20:40:28,15.08848996,0.0002095,53.2173,273.0522,138.4046,221.7106,-9.792e-05,-1.847e-05,0.0,0 STARLINK-5194,1 54186U 22141AF  24015.86143851 -.00001847  00000-0 -97920-4 0  9995,2 54186  53.2173 273.0522 0002095 138.4046 221.7106 15.08848996 67662,6917.853,95.437,541.167,538.269,0.0
54186.0,STARLINK-5194,PAYLOAD,2024-01-16 03:02:00,15.08846381,0.0001449,53.2182,271.8702,96.8437,263.272,-2.5298e-05,-6.91e-06,0.0,0 STARLINK-5194,1 54186U 22141AF  24016.12639990 -.00000691  00000-0 -25298-4 0  9994,2 54186  53.2182 271.8702 0001449  96.8437 263.2720 15.08846381 67930,6917.861,95.437,540.728,538.723,0.0
54186.0,STARLINK-5194,PAYLOAD,2024-01-16 15:45:06,15.08835435,0.0001859,53.2151,269.4943,96.3754,263.745,4.5478e-05,4.36e-06,0.0,0 STARLINK-5194,1 54186U 22141AF  24016.65632681  .00000436  00000-0  45478-4 0  9999,2 54186  53.2151 269.4943 0001859  96.3754 263.7450 15.08835435 68011,6917.894,95.438,541.045,538.473,0.0
